SL-14 R/B               
1 13553U 82092B   25317.55529529  .00001458  00000+0  16157-3 0  9998
2 13553  82.5681 250.0029 0019649 330.8672 202.6038 14.86508884311676
SL-3 R/B                
1 13819U 83010B   25317.26396606  .00024747  00000+0  56768-3 0  9998
2 13819  81.1029 144.5694 0018283  91.5448 268.7889 15.42411475339974
SL-3 R/B                
1 14208U 83075B   25317.59647820  .00020859  00000+0  60514-3 0  9999
2 14208  97.6108 313.1204 0021084 286.2272  73.6650 15.35328772312327
COSMOS 1536             
1 14699U 84013A   25317.62107506  .00017348  00000+0  75460-3 0  9997
2 14699  82.5468 223.0275 0014512 338.7860  21.2772 15.22046663254954
SL-14 R/B               
1 14820U 84027B   25317.53065642  .00001085  00000+0  12164-3 0  9995
2 14820  82.5427 353.9493 0018006   3.3898 356.7437 14.85831170230386
SL-8 R/B                
1 15483U 85006B   25317.45683987  .00000634  00000+0  21930-3 0  9998
2 15483  74.0433 115.0084 0017620  56.6464   4.5444 14.37694707137325
SL-12 R/B(2)            
1 15772U 85042D   25317.49072014  .00000222  00000+0  12128-3 0  9998
2 15772  71.1084 333.2137 0037277 304.2989 164.8963 14.21938083 97875
SL-14 R/B               
1 15945U 85069B   25317.48326929  .00001214  00000+0  13496-3 0  9996
2 15945  82.5245 134.2088 0017934 213.7002 146.3075 14.86273387155575
SL-16 R/B               
1 16182U 85097B   25317.48069701  .00000054  00000+0  51244-4 0  9998
2 16182  71.0045  25.2015 0005288  66.2935  24.5920 14.16576229 70772
SL-14 R/B               
1 16496U 86006B   25317.55576650  .00001500  00000+0  15800-3 0  9995
2 16496  82.5290   9.0099 0075409 298.2364  61.1254 14.86613975131958
